CCSDS_OMM_VERS = 2.0
CREATION_DATE  = 
ORIGINATOR     = 

OBJECT_NAME    = ARIANE 5 R/B
OBJECT_ID      = 2004-049H
CENTER_NAME    = EARTH
REF_FRAME      = TEME
TIME_SYSTEM    = UTC
MEAN_ELEMENT_THEORY = SGP/SGP4

EPOCH          = 2025-11-04T10:43:09.022080
MEAN_MOTION    = 14.84892962
ECCENTRICITY   = .0085509
INCLINATION    = 98.2512
RA_OF_ASC_NODE = 107.3634
ARG_OF_PERICENTER = 37.6490
MEAN_ANOMALY   = 323.0667

EPHEMERIS_TYPE = 0
CLASSIFICATION_TYPE = U
NORAD_CAT_ID   = 28499
ELEMENT_SET_NO = 999
REV_AT_EPOCH   = 12720
BSTAR          = .11478E-3
MEAN_MOTION_DOT = .978E-5
MEAN_MOTION_DDOT = 0

CCSDS_OMM_VERS = 2.0
CREATION_DATE  = 
ORIGINATOR     = 

OBJECT_NAME    = CZ-2D R/B
OBJECT_ID      = 2005-024B
CENTER_NAME    = EARTH
REF_FRAME      = TEME
TIME_SYSTEM    = UTC
MEAN_ELEMENT_THEORY = SGP/SGP4

EPOCH          = 2025-11-04T11:39:01.023264
MEAN_MOTION    = 15.50620913
ECCENTRICITY   = .0008039
INCLINATION    = 97.3665
RA_OF_ASC_NODE = 314.9967
ARG_OF_PERICENTER = 111.9076
MEAN_ANOMALY   = 248.3031

EPHEMERIS_TYPE = 0
CLASSIFICATION_TYPE = U
NORAD_CAT_ID   = 28738
ELEMENT_SET_NO = 999
REV_AT_EPOCH   = 12032
BSTAR          = .42996E-3
MEAN_MOTION_DOT = .24605E-3
MEAN_MOTION_DDOT = 0

CCSDS_OMM_VERS = 2.0
CREATION_DATE  = 
ORIGINATOR     = 

OBJECT_NAME    = ALOS (DAICHI)
OBJECT_ID      = 2006-002A
CENTER_NAME    = EARTH
REF_FRAME      = TEME
TIME_SYSTEM    = UTC
MEAN_ELEMENT_THEORY = SGP/SGP4

EPOCH          = 2025-11-04T10:12:39.381120
MEAN_MOTION    = 14.69291192
ECCENTRICITY   = .0001488
INCLINATION    = 98.1027
RA_OF_ASC_NODE = 260.2007
ARG_OF_PERICENTER = 52.0904
MEAN_ANOMALY   = 308.0436

EPHEMERIS_TYPE = 0
CLASSIFICATION_TYPE = U
NORAD_CAT_ID   = 28931
ELEMENT_SET_NO = 999
REV_AT_EPOCH   = 5508
BSTAR          = .31638E-3
MEAN_MOTION_DOT = .1818E-4
MEAN_MOTION_DDOT = 0

CCSDS_OMM_VERS = 2.0
CREATION_DATE  = 
ORIGINATOR     = 

OBJECT_NAME    = H-2A R/B
OBJECT_ID      = 2006-002B
CENTER_NAME    = EARTH
REF_FRAME      = TEME
TIME_SYSTEM    = UTC
MEAN_ELEMENT_THEORY = SGP/SGP4

EPOCH          = 2025-11-04T09:17:00.878208
MEAN_MOTION    = 15.13506171
ECCENTRICITY   = .0054984
INCLINATION    = 98.2296
RA_OF_ASC_NODE = 80.0432
ARG_OF_PERICENTER = 307.6421
MEAN_ANOMALY   = 51.9826

EPHEMERIS_TYPE = 0
CLASSIFICATION_TYPE = U
NORAD_CAT_ID   = 28932
ELEMENT_SET_NO = 999
REV_AT_EPOCH   = 7546
BSTAR          = .52633E-3
MEAN_MOTION_DOT = .9707E-4
MEAN_MOTION_DDOT = 0

CCSDS_OMM_VERS = 2.0
CREATION_DATE  = 
ORIGINATOR     = 

OBJECT_NAME    = RESURS-DK 1
OBJECT_ID      = 2006-021A
CENTER_NAME    = EARTH
REF_FRAME      = TEME
TIME_SYSTEM    = UTC
MEAN_ELEMENT_THEORY = SGP/SGP4

EPOCH          = 2025-11-04T04:40:50.433024
MEAN_MOTION    = 15.11842146
ECCENTRICITY   = .0007348
INCLINATION    = 69.9339
RA_OF_ASC_NODE = 201.4233
ARG_OF_PERICENTER = 290.0643
MEAN_ANOMALY   = 69.9731

EPHEMERIS_TYPE = 0
CLASSIFICATION_TYPE = U
NORAD_CAT_ID   = 29228
ELEMENT_SET_NO = 999
REV_AT_EPOCH   = 6855
BSTAR          = .18816E-3
MEAN_MOTION_DOT = .3119E-4
MEAN_MOTION_DDOT = 0

CCSDS_OMM_VERS = 2.0
CREATION_DATE  = 
ORIGINATOR     = 

OBJECT_NAME    = CZ-4B R/B
OBJECT_ID      = 2006-046C
CENTER_NAME    = EARTH
REF_FRAME      = TEME
TIME_SYSTEM    = UTC
MEAN_ELEMENT_THEORY = SGP/SGP4

EPOCH          = 2025-11-04T01:54:51.762528
MEAN_MOTION    = 15.15295697
ECCENTRICITY   = .00339781
INCLINATION    = 97.5799
RA_OF_ASC_NODE = 348.3258
ARG_OF_PERICENTER = 345.1478
MEAN_ANOMALY   = 14.8752

EPHEMERIS_TYPE = 0
CLASSIFICATION_TYPE = U
NORAD_CAT_ID   = 29507
ELEMENT_SET_NO = 999
REV_AT_EPOCH   = 4101
BSTAR          = .29529863E-3
MEAN_MOTION_DOT = .5571E-4
MEAN_MOTION_DDOT = 0

CCSDS_OMM_VERS = 2.0
CREATION_DATE  = 
ORIGINATOR     = 

OBJECT_NAME    = CZ-2C R/B
OBJECT_ID      = 2007-010B
CENTER_NAME    = EARTH
REF_FRAME      = TEME
TIME_SYSTEM    = UTC
MEAN_ELEMENT_THEORY = SGP/SGP4

EPOCH          = 2025-11-04T07:43:26.956128
MEAN_MOTION    = 14.20185857
ECCENTRICITY   = .0057965
INCLINATION    = 98.3956
RA_OF_ASC_NODE = 62.9110
ARG_OF_PERICENTER = 299.2688
MEAN_ANOMALY   = 60.2703

EPHEMERIS_TYPE = 0
CLASSIFICATION_TYPE = U
NORAD_CAT_ID   = 31114
ELEMENT_SET_NO = 999
REV_AT_EPOCH   = 96192
BSTAR          = .84486E-4
MEAN_MOTION_DOT = .142E-5
MEAN_MOTION_DDOT = 0

CCSDS_OMM_VERS = 2.0
CREATION_DATE  = 
ORIGINATOR     = 

OBJECT_NAME    = COSMO-SKYMED 1
OBJECT_ID      = 2007-023A
CENTER_NAME    = EARTH
REF_FRAME      = TEME
TIME_SYSTEM    = UTC
MEAN_ELEMENT_THEORY = SGP/SGP4

EPOCH          = 2025-11-04T12:25:49.273824
MEAN_MOTION    = 14.95338458
ECCENTRICITY   = .0001133
INCLINATION    = 97.8849
RA_OF_ASC_NODE = 133.6752
ARG_OF_PERICENTER = 91.5357
MEAN_ANOMALY   = 268.5993

EPHEMERIS_TYPE = 0
CLASSIFICATION_TYPE = U
NORAD_CAT_ID   = 31598
ELEMENT_SET_NO = 999
REV_AT_EPOCH   = 99618
BSTAR          = .33961E-3
MEAN_MOTION_DOT = .3687E-4
MEAN_MOTION_DDOT = 0

CCSDS_OMM_VERS = 2.0
CREATION_DATE  = 
ORIGINATOR     = 

OBJECT_NAME    = COSMOS 2428
OBJECT_ID      = 2007-029A
CENTER_NAME    = EARTH
REF_FRAME      = TEME
TIME_SYSTEM    = UTC
MEAN_ELEMENT_THEORY = SGP/SGP4

EPOCH          = 2025-11-04T10:28:49.456128
MEAN_MOTION    = 14.12891367
ECCENTRICITY   = .0001854
INCLINATION    = 70.9363
RA_OF_ASC_NODE = 106.2938
ARG_OF_PERICENTER = 99.5911
MEAN_ANOMALY   = 260.5419

EPHEMERIS_TYPE = 0
CLASSIFICATION_TYPE = U
NORAD_CAT_ID   = 31792
ELEMENT_SET_NO = 999
REV_AT_EPOCH   = 94640
BSTAR          = -.10638E-3
MEAN_MOTION_DOT = -.246E-5
MEAN_MOTION_DDOT = 0

CCSDS_OMM_VERS = 2.0
CREATION_DATE  = 
ORIGINATOR     = 

OBJECT_NAME    = SL-16 R/B
OBJECT_ID      = 2007-029B
CENTER_NAME    = EARTH
REF_FRAME      = TEME
TIME_SYSTEM    = UTC
MEAN_ELEMENT_THEORY = SGP/SGP4

EPOCH          = 2025-11-04T11:51:48.911904
MEAN_MOTION    = 14.14803407
ECCENTRICITY   = .000225
INCLINATION    = 70.9745
RA_OF_ASC_NODE = 75.5476
ARG_OF_PERICENTER = 258.1463
MEAN_ANOMALY   = 169.0385

EPHEMERIS_TYPE = 0
CLASSIFICATION_TYPE = U
NORAD_CAT_ID   = 31793
ELEMENT_SET_NO = 999
REV_AT_EPOCH   = 94766
BSTAR          = .41124E-4
MEAN_MOTION_DOT = .31E-6
MEAN_MOTION_DDOT = 0

CCSDS_OMM_VERS = 2.0
CREATION_DATE  = 
ORIGINATOR     = 

OBJECT_NAME    = KORONAS-FOTON
OBJECT_ID      = 2009-003A
CENTER_NAME    = EARTH
REF_FRAME      = TEME
TIME_SYSTEM    = UTC
MEAN_ELEMENT_THEORY = SGP/SGP4

EPOCH          = 2025-11-04T08:48:50.908896
MEAN_MOTION    = 15.39925891
ECCENTRICITY   = .0010679
INCLINATION    = 82.4341
RA_OF_ASC_NODE = 45.8204
ARG_OF_PERICENTER = 244.6797
MEAN_ANOMALY   = 115.3343

EPHEMERIS_TYPE = 0
CLASSIFICATION_TYPE = U
NORAD_CAT_ID   = 33504
ELEMENT_SET_NO = 999
REV_AT_EPOCH   = 92643
BSTAR          = .38588E-3
MEAN_MOTION_DOT = .15429E-3
MEAN_MOTION_DDOT = 0

CCSDS_OMM_VERS = 2.0
CREATION_DATE  = 
ORIGINATOR     = 

OBJECT_NAME    = CZ-2C R/B
OBJECT_ID      = 2011-030B
CENTER_NAME    = EARTH
REF_FRAME      = TEME
TIME_SYSTEM    = UTC
MEAN_ELEMENT_THEORY = SGP/SGP4

EPOCH          = 2025-11-04T11:50:16.937376
MEAN_MOTION    = 14.80689335
ECCENTRICITY   = .0054218
INCLINATION    = 97.8346
RA_OF_ASC_NODE = 263.4656
ARG_OF_PERICENTER = 39.1540
MEAN_ANOMALY   = 76.8324

EPHEMERIS_TYPE = 0
CLASSIFICATION_TYPE = U
NORAD_CAT_ID   = 37731
ELEMENT_SET_NO = 999
REV_AT_EPOCH   = 77156
BSTAR          = .24575E-3
MEAN_MOTION_DOT = .1883E-4
MEAN_MOTION_DDOT = 0

