ARIANE 5 R/B            
1 28499U 04049H   25308.44663220  .00000978  00000+0  11478-3 0  9991
2 28499  98.2512 107.3634 0085509  37.6490 323.0667 14.84892962127203
CZ-2D R/B               
1 28738U 05024B   25308.48542851  .00024605  00000+0  42996-3 0  9993
2 28738  97.3665 314.9967 0008039 111.9076 248.3031 15.50620913120321
ALOS (DAICHI)           
1 28931U 06002A   25308.42545580  .00001818  00000+0  31638-3 0  9993
2 28931  98.1027 260.2007 0001488  52.0904 308.0436 14.69291192 55086
H-2A R/B                
1 28932U 06002B   25308.38681572  .00009707  00000+0  52633-3 0  9994
2 28932  98.2296  80.0432 0054984 307.6421  51.9826 15.13506171 75465
RESURS-DK 1             
1 29228U 06021A   25308.19502816  .00003119  00000+0  18816-3 0  9992
2 29228  69.9339 201.4233 0007348 290.0643  69.9731 15.11842146 68557
CZ-4B R/B               
1 29507U 06046C   25308.07976577  .00005571  00000+0  29530-3 0  9994
2 29507  97.5799 348.3258 0033978 345.1478  14.8752 15.15295697 41019
CZ-2C R/B               
1 31114U 07010B   25308.32183977  .00000142  00000+0  84486-4 0  9996
2 31114  98.3956  62.9110 0057965 299.2688  60.2703 14.20185857961923
COSMO-SKYMED 1          
1 31598U 07023A   25308.51793141  .00003687  00000+0  33961-3 0  9995
2 31598  97.8849 133.6752 0001133  91.5357 268.5993 14.95338458996183
COSMOS 2428             
1 31792U 07029A   25308.43668352 -.00000246  00000+0 -10638-3 0  9999
2 31792  70.9363 106.2938 0001854  99.5911 260.5419 14.12891367946405
SL-16 R/B               
1 31793U 07029B   25308.49431611  .00000031  00000+0  41124-4 0  9997
2 31793  70.9745  75.5476 0002250 258.1463 169.0385 14.14803407947665
KORONAS-FOTON           
1 33504U 09003A   25308.36725589  .00015429  00000+0  38588-3 0  9995
2 33504  82.4341  45.8204 0010679 244.6797 115.3343 15.39925891926430
CZ-2C R/B               
1 37731U 11030B   25308.49325159  .00001883  00000+0  24575-3 0  9997
2 37731  97.8346 263.4656 0054218  39.1540  76.8324 14.80689335771567
